ONEWEB-0558             
1 56059U 23043P   25295.07585333  .00002061  00000+0  49650-2 0  9998
2 56059  87.9164 291.4941 0002197  98.8363 261.3020 13.21731843126789
ONEWEB-0559             
1 56060U 23043Q   25295.06436899  .00000234  00000+0  53617-3 0  9990
2 56060  87.9166 291.4891 0001942  99.2753 260.8600 13.21761953126796
ONEWEB-0566             
1 56061U 23043R   25295.05779308 -.00000035  00000+0 -11546-3 0  9991
2 56061  87.9165 291.4879 0002023  99.0357 261.1006 13.21781789126772
ONEWEB-0568             
1 56062U 23043S   25294.98846689 -.00000048  00000+0 -15907-3 0  9999
2 56062  87.8985 276.2183 0001983  78.0982 282.0372 13.16594460127632
ONEWEB-0574             
1 56063U 23043T   25295.12690814  .00000061  00000+0  11658-3 0  9996
2 56063  87.9166 291.4625 0001723  87.2107 272.9224 13.21807497126825
ONEWEB-0575             
1 56064U 23043U   25295.21011189 -.00000014  00000+0 -68960-4 0  9998
2 56064  87.8981 276.1767 0001599  74.7112 285.4195 13.16594751127653
ONEWEB-0576             
1 56065U 23043V   25295.19112610  .00000029  00000+0  41925-4 0  9993
2 56065  87.8987 276.1787 0001873  79.9692 280.1650 13.16594050127646
ONEWEB-0577             
1 56066U 23043W   25295.19745764  .00000033  00000+0  52374-4 0  9991
2 56066  87.8985 276.1776 0001386  68.9328 291.1951 13.16593953127676
